OPS 6582 (TRANSIT 5B-5) 
1 00965U 64083D   25220.88455506  .00000035  00000+0  35369-4 0  9990
2 00965  90.0609 200.7032 0043433 110.1841 267.9121 13.56972513  1262
LES-1                   
1 01002U 65008C   25220.71055669  .00000002  00000+0 -88847-3 0  9992
2 01002  32.1456  64.9483 0015736 225.2888 134.6327  9.88354637185279
SOLRAD 7B               
1 01291U 65016D   25221.19084515 -.00000015  00000+0  27680-4 0  9999
2 01291  70.0784 179.5484 0020675 178.0729 182.0460 13.94920641 73687
SECOR 4 (EGRS 4)        
1 01315U 65027B   25220.94738259  .00000009  00000+0  70966-5 0  9999
2 01315  90.2448   8.5155 0029528 297.1848 186.8602 12.92658925846589
TIROS 10                
1 01430U 65051A   25221.11336097  .00000139  00000+0  55939-4 0  9994
2 01430  98.4738 337.4281 0054335 296.7525  62.8110 14.41434138151382
ALOUETTE 2              
1 01804U 65098A   25221.17485941  .00000324  00000+0  10070-3 0  9991
2 01804  79.8008 182.0049 1331747 144.9724 224.6782 12.27900332640570
OV3-3                   
1 02389U 66070A   25221.14173582  .00007725  00000+0  36521-3 0  9994
2 02389  81.3255 244.3336 1049768 241.7846 107.3459 13.36198048557155
SECOR 7 (EGRS 7)        
1 02411U 66077B   25220.53279798  .00000031  00000+0  14718-1 0  9990
2 02411  90.3326 273.7967 0012513  17.0316 343.0954  8.59615459850917
ERS 15                  
1 02412U 66077C   25220.10433983  .00000002  00000+0  00000+0 0  9997
2 02412  90.3338 273.5857 0007678  26.9993 333.1257  8.59078614363576
ISIS 1                  
1 03669U 69009A   25220.84456761  .00000092  00000+0  52942-4 0  9996
2 03669  88.4564 178.5059 1708100 158.7998 209.3545 11.30281840324487
SECOR 13 (EGRS 13)      
1 03891U 69037B   25220.64150278 -.00000013  00000+0  52576-4 0  9993
2 03891  99.6947  99.9673 0038805 299.0172 116.3341 13.42959605759806
ATS 5                   
1 04068U 69069A   25220.88710941 -.00000212  00000+0  00000+0 0  9991
2 04068   0.7559 252.2398 0004956  12.7513 309.9994  0.99491620 43213
OPS 7613 (P/L 4)        
1 04237U 69082E   25220.90907934  .00000038  00000+0  66218-4 0  9990
2 04237  70.0143  50.9599 0020420 184.6550 276.7689 13.95926704842721
OPS 7613 (P/L 1)        
1 04256U 69082B   25220.60601821  .00000018  00000+0  49182-4 0  9993
2 04256  70.0089 276.4573 0016905 117.3970 242.8859 13.99072885846745
SHINSEI (MS-F2)         
1 05485U 71080A   25220.72941185  .00000038  00000+0  35056-4 0  9999
2 05485  32.0554  15.1262 0639333 133.1280 232.4608 12.74234483509383
PROSPERO (BLACK ARROW)  
1 05580U 71093A   25221.02947613  .00001991  00000+0  42442-3 0  9990
2 05580  82.0371 204.6130 0506567  41.8071 322.0651 14.00542130705907
OPS 7898 (P/L 2)        
1 05680U 71110C   25221.17815140  .00000004  00000+0  56784-4 0  9995
2 05680  69.9896 286.8009 0009034 217.2662 142.7806 13.74722278306542
NOAA 2 (ITOS-D)         
1 06235U 72082A   25220.91240267 -.00000018  00000+0  18282-3 0  9990
2 06235 102.0224 230.8678 0004427  49.7305  11.7051 12.53203087415835
EXPLORER 50 (IMP-8)     
1 06893U 73078A   25196.57914163 -.00001058  00000+0  00000+0 0  9993
2 06893   9.0739 118.5325 1991774 108.5150   0.8671  0.08284795 11624
OSCAR 7 (AO-7)          
1 07530U 74089B   25220.89375020 -.00000027  00000+0  12093-3 0  9995
2 07530 101.9956 225.8031 0012311   9.0660  53.3699 12.53690681321381
TIROS N                 
1 11060U 78096A   25221.11803100  .00000164  00000+0  97904-4 0  9997
2 11060  98.4851 250.8627 0011563  69.6429 290.5989 14.19215627634729
PHASE 3B (AO-10)        
1 14129U 83058B   25221.08990465 -.00000065  00000+0  00000+0 0  9994
2 14129  26.4648 272.4009 6068317  28.8160 354.3133  2.05870693289055
HILAT                   
1 14154U 83063A   25221.15327475  .00000388  00000+0  12093-3 0  9997
2 14154  82.0223  91.0884 0039880 154.4820 293.3990 14.38380638202986
UOSAT 2 (UO-11)         
1 14781U 84021B   25221.19733745  .00001303  00000+0  14233-3 0  9999
2 14781  97.7591 186.3874 0008972 129.1302 231.0714 14.89535139231666
NOAA 9                  
1 15427U 84123A   25221.02732534  .00000114  00000+0  80085-4 0  9995
2 15427  99.1223 235.0365 0015163 150.4864 229.3328 14.16942677 99458
GEOSAT                  
1 15595U 85021A   25220.85905507  .00000167  00000+0  96669-4 0  9994
2 15595 108.0472 151.4113 0002329 275.4259  84.6617 14.39707342117815
EUTELSAT 1-F4 (ECS 4)   
1 18351U 87078B   25220.33369837 -.00000125  00000+0  00000+0 0  9998
2 18351  14.0516 344.3101 0007845  46.6098 341.2121  0.98688658123671
PACSAT (AO-16)          
1 20439U 90005D   25220.85679950  .00000155  00000+0  72414-4 0  9994
2 20439  98.8873 243.6280 0011650  70.1334 108.1415 14.33792160857173
LUSAT (LO-19)           
1 20442U 90005G   25221.02236638  .00000136  00000+0  65658-4 0  9991
2 20442  98.8995 228.9704 0012372  45.6344 314.5851 14.33974177857716
IRS-1B                  
1 21688U 91061A   25221.24622168 -.00000206  00000+0 -11216-3 0  9998
2 21688  99.4025 216.5178 0025016 130.0143 241.0148 13.97803713625164
COSMOS 2197             
1 22034U 92042A   25220.85969726  .00000048  00000+0  20608-3 0  9991
2 22034  82.5906  68.5306 0011729 265.5195 105.6826 12.64238609525825
PEGASUS R/B             
1 22491U 93009C   25220.79662585  .00001039  00000+0  17901-3 0  9991
2 22491  24.9769 254.9036 0044396 339.6824  20.1922 14.57273043724002
EYESAT A (AO-27)        
1 22825U 93061C   25220.70751997  .00000082  00000+0  48380-4 0  9990
2 22825  98.7329 282.5514 0007373 300.6761  59.3694 14.30815772662311
ITAMSAT (IO-26)         
1 22826U 93061D   25220.91868554  .00000122  00000+0  63325-4 0  9993
2 22826  98.7277 282.6518 0007791 281.5634  78.4674 14.31230910662641
RADIO ROSTO (RS-15)     
1 23439U 94085A   25220.93014440 -.00000014  00000+0  80595-3 0  9998
2 23439  64.8157  88.2116 0146843  62.7235 298.8558 11.27581924260699
JAS-2 (FO-29)           
1 24278U 96046B   25220.93580071  .00000015  00000+0  51112-4 0  9991
2 24278  98.5667 106.8676 0349812 186.0629 173.6222 13.53251422430939
FORTE                   
1 24920U 97047A   25220.86483532  .00000158  00000+0  87137-4 0  9997
2 24920  69.9552 359.3597 0023163 337.7702  22.2414 14.27739021454105
NOAA 15                 
1 25338U 98030A   25221.18249077  .00000201  00000+0  10038-3 0  9998
2 25338  98.5337 244.8498 0010354 175.2863 184.8417 14.27009040417048
TECHSAT 1B (GO-32)      
1 25397U 98043D   25220.89466598  .00000074  00000+0  52128-4 0  9998
2 25397  98.9753 201.2865 0002149  59.7853 300.3537 14.24327967406877
ISS (ZARYA)             
1 25544U 98067A   25221.25148371  .00008541  00000+0  15525-3 0  9991
2 25544  51.6349  44.0567 0001476 172.8642 187.2368 15.50405280523391
ORSTED                  
1 25635U 99008B   25221.18421189  .00000652  00000+0  15299-3 0  9994
2 25635  96.4502 195.0275 0134579 107.1569 254.4417 14.51187466396970
LANDSAT 7               
1 25682U 99020A   25221.18270900  .00000448  00000+0  95082-4 0  9995
2 25682  97.8628 234.1841 0001496  78.7406 354.6438 14.63482812400264
ORBCOMM FM36            
1 25984U 99065E   25221.19879719  .00001009  00000+0  37555-3 0  9997
2 25984  45.0379 199.6538 0003935 248.7016 111.3413 14.38220176342644
DMSP 5D-3 F15 (USA 147) 
1 25991U 99067A   25221.23390262  .00000144  00000+0  93680-4 0  9994
2 25991  99.0367 250.2562 0010199 164.3517 273.2917 14.17400676326470
OPAL (OO-38)            
1 26063U 00004C   25221.09071430  .00000107  00000+0  54860-4 0  9991
2 26063 100.2056  95.3792 0035616 196.1288 163.8762 14.37795422338623
IMAGE                   
1 26113U 00017A   25220.21880440 -.00000334  00000+0 -52728-2 0  9996
2 26113  93.8972 310.7543 7641688 324.7481   3.3019  1.68662246156239
CLUSTER II-FM7 (SAMBA)  
1 26410U 00041A   25222.88866701  .00002452  00000+0  00000+0 0  9996
2 26410 145.3695  15.0662 8503034 230.4428 359.3490  0.44770294 18924
CLUSTER II-FM5 (RUMBA)  
1 26463U 00045A   25219.07653077  .00014115  00000+0  00000+0 0  9994
2 26463 149.8059  86.1640 9105423 305.5810   0.9600  0.42921244 31175
CLUSTER II-FM8 (TANGO)  
1 26464U 00045B   25222.70112619  .00002536  00000+0  00000+0 0  9995
2 26464 145.6438  15.5006 8508425 230.7400 359.3092  0.44422985 18929
MEGSAT-1                
1 26546U 00057B   25221.06938675  .00003251  00000+0  25435-3 0  9993
2 26546  64.5529 347.2645 0023421 310.2831  49.6237 15.02668147350792
PHASE 3D (AO-40)        
1 26609U 00072B   25220.77791973 -.00000293  00000+0  00000+0 0  9996
2 26609   9.7467  35.9876 7963469  83.1862 352.1837  1.25590505113587
ODIN                    
1 26702U 01007A   25220.80909560  .00020296  00000+0  46048-3 0  9996
2 26702  97.4392 245.4701 0003710 194.0534 166.0611 15.43088236340865
OMNI-M1                 
1 26857U 01026A   25220.33792569 -.00000036  00000+0  00000+0 0  9990
2 26857  44.9736 317.2796 0013449 330.3784  29.5923  3.92401482193294
PCSAT (NO-44)           
1 26931U 01043C   25221.00102732  .00000135  00000+0  81399-4 0  9998
2 26931  67.0527 331.6168 0006591 276.5181  83.5170 14.31759682245910
PROBA-1                 
1 26958U 01049B   25221.18171253  .00002458  00000+0  16914-3 0  9996
2 26958  97.9520 214.3513 0058962  96.7818 264.0122 15.05498972296703
SPOT 5                  
1 27421U 02021A   25221.07337519  .00000509  00000+0  11731-3 0  9997
2 27421  98.0318 268.0653 0130795 166.0753 194.4108 14.54345611217506
FENGYUN 1D              
1 27431U 02024B   25220.74874076  .00000011  00000+0  31326-4 0  9999
2 27431  99.0011 266.7408 0016075  44.6435 315.6026 14.10156507195443
SAUDISAT 1C (SO-50)     
1 27607U 02058C   25221.02705146  .00001032  00000+0  14481-3 0  9990
2 27607  64.5537  13.9242 0062724 321.0327  38.6266 14.81770008218394
CORIOLIS                
1 27640U 03001A   25220.95328381  .00000127  00000+0  80538-4 0  9990
2 27640  98.7141 227.6202 0014732  36.2193 323.9978 14.19808382169914
